name,lat_first,lon_first,lat_centroid,lon_centroid,description
lat = 3/4 c27,-9.8822654,-68.5,-9.8822654,-67.3,
lat = 3/4 r27,-9.8552836,-68.5,-9.8552836,-67.3,
meridian / 6,-15.0,-64.857,-15.0,-64.42022433333334,
meridian / 7,-12.857143,-67.3,-12.857142999999999,-64.8,
meridian / 8,-11.25,-68.5,-11.25,-67.59999368421052,
meridian / 9,-10.0,-68.5,-10.0,-67.59999415789474,
meridian / 10,-9.0,-67.8,-9.0,-67.29999081818181,
lloma-lomax,-15.201527,-64.469906,-15.2327995,-64.413622,
amads-amaq15,-9.188328,-67.204125,-9.223482,-67.124112,
amasq-amael,-9.159157,-67.218394,-9.182648499999999,-67.271647,
solstice 114.0°,-9.12814647362323,-67.2133064678814,-9.131470890935805,-67.20574215214451,
solstice 113.92°,-9.133224420291693,-67.27763549936577,-9.146785751483812,-67.24666339500624,
lunar major,-10.08794818894499,-67.31158103879821,-10.089012740618216,-67.30966538132435,
lunar major,-9.8819291,-67.4164676,-9.880059,-67.41324507499999,
abuno-acrc60-acrtq,-9.74665,-67.293425,-9.870652,-66.995554,Abuna Oval 342 x 315m - Acre Circle 350m - Acre Triple Quadrangle 320 x 230m e-w ratio @ acrc60 = 1.0 : 0.600083 (+5m) arcs ratio @ abuno = 1.0 : 0.400101 (+7m) arcs ratio @ acrtq = 1.0 : 0.666947 (+11m) great circle @ acrtq = 180.1996°
abuno-acrc60-assis,-10.910099,-69.493066,-10.212045333333334,-67.840479,Abuna Oval 342 x 315m - Acre Circle 350m - Assis Oval 325 x 272m n-s ratio @ abuno = 1.0 : 0.250063 (+7m) n-s ratio @ acrc60 = 1.0 : 0.200041 (+5m)
abuno-amasq-nocp,40.05469583,-82.4442625,6.97205061,-72.13253416666667,Abuna Oval 342 x 315m - Amazonas Square 337m - Newark Octagon n-s ratio @ amasq = 1.0 : 0.016667 (-0.1m)
abuno-bdese-assis,-10.910099,-69.493066,-10.195391,-67.90556966666666,Abuna Oval 342 x 315m - Bom Destino Enclosure 412 x 270m - Assis Oval 325 x 272m e-w ratio @ abuno = 1.0 : 0.273284 (+21m) epoch hopewell dl = 27.321666	days per lunar orbit
abuno-rong23-sgaen,-10.265453,-67.06337,-10.027053,-66.71888166666666,Abuna Oval 342 x 315m - Rondonia Geoglyph 280m - San Gabriel Enclosure 240m n-s ratio @ abuno = 1.0 : 0.500122 (+4m)
abuno-seasc-noctm,40.05338627,-82.446436285,6.870800423333333,-75.805366095,Abuna Oval 342 x 315m - Sechin Alto Sunken Court - Newark Octagon Mean e-w ratio @ seasc = 1.0 : 0.366244 (+2m) epoch hopewell ry = 366.242358	rotations per year
abuov-uinti-noe,40.05597222,-82.44219444,5.600242073333334,-73.95633148,Abuna Oval 220 x 210m - Urubamba Intiwatana GPS - Octagon Apex e-w ratio @ abuov = 1.0 : 0.365245 (+5m) epoch hopewell dy = 365.2423969 days per year
abuno-xapen-rondg,-9.685615,-66.404247,-10.149522333333332,-67.17006833333333,Abuna Oval 342 x 315m - Xapuri Enclosure 340m - Rondonia Geoglyph 195m n-s ratio @ abuno = 1.0 : 0.365307 (+5m) epoch hopewell do = 365.2564674 days per orbit Photo credit: Dr. Robert S. Walker
acds4-lsunm-nocc,40.05207671,-82.44861007,20.13126557,-80.31713202333333,Acre Double Square 200m - LSU North Mound - Observatory Circle e-w ratio @ lsunm = 1.0 : 0.366009 (-1m) epoch hopewell ld = 0.0366010 lunar orbits per day Photo credit: Dr. Robert S. Walker
acrc60-fenix-nccm,40.04102778,-82.43088889,16.03290592666667,-80.28849229666667,Acre Circle 350m - Aguada Fenix - Eagle Mound e-w ratio @ fenix = 1.0 : 0.365245 (+8m) epoch hopewell dy = 365.2423969 days per year
acrc60-lhald-nocp,-9.74665,-67.293425,6.86904261,-76.01126183333334,Acre Circle 350m - Las Haldas Plaza - Newark Octagon e-w ratio @ nocp = 1.0 : 0.273791 (+0.5m) epoch hopewell yd = 0.0027379 years per day e-w ratio @ nocp = 1.0 : 3.652420 (+0.5m) epoch hopewell dy = 365.2423969 days per year
acrc60-lloma-macht,-13.164079,-72.544742,-12.704085333333333,-68.102691,"Acre Circle 350m - La Loma - Machupicchu Torreon e-w ratio @ acrc60 = 1.0 : 1.859848 (+3m) epoch hopewell ot = 18.5986562 orbits per lunar orbit turn Acre Circle 350m - La Loma - Machupicchu High Group acrc60-lloma-machg e-w ratio @ acrc60 = 1.0 : 1.859937 (-1m) epoch hopewell yt = 18.5993727 years per lunar orbit turn Acre Circle 350m - La Loma Zanja - Machupicchu Windows acrc60-lomaz-machw e-w ratio @ acrc60 = 1.0 : 1.859944 (-1m) epoch hopewell yt = 18.5993727 years per lunar orbit turn Forest Island 1, to the northwest, is on the La Loma - Loma X alignment."
acrc60-pachs-nccm,-9.74665,-67.293425,6.010529593333334,-75.54204529666667,Acre Circle 350m - Pachacamac - Eagle Mound e-w ratio @ nccm = 1.0 : 0.365257 (+1m) epoch hopewell do = 365.2564674	days per orbit Acre Circle 350m - Pachacamac - Observatory Circle acrc60-pachs-nocc e-w ratio @ nocc = 1.0 : 0.365999 (-18m) epoch hopewell ld = 0.0366010 lunar orbits per day
acrc60-nccm-yerup,-10.268785,-76.905518,6.675197593333333,-75.54327729666666,Acre Circle 350m - Eagle Mound - Yerupaja GE e-w ratio @ nccm = 1.0 : 0.365013 (+4m) epoch hopewell lr = 0.0365011 lunar orbits per rotation
acrc60-pcocs-nocga,40.053222,-82.446715,10.120369666666667,-76.016315,Acre Circle 350m - Cochasqui Sur - Octagon Gateway arcs ratio @ pcocs = 1.0 : 0.366009 (-4m) epoch hopewell ld = 0.0366010 lunar orbits per day Acre Circle 350m - Cochasqui Sur - Octagon Earthwork acrc60-pcocs-octag e-w ratio @ octag = 1.0 : 0.273044 (+1m) epoch hopewell yr = 0.0027304 years per rotation
acree-fenip-nccm,40.04102778,-82.43088889,16.03669626,-80.28377929666668,"Acre Enclosure 250m - Aguada Fenix Pyramid - Eagle Mound e-w ratio @ fenip = 1.0 : 0.365256 (-3m) epoch hopewell do = 365.2564674 days per orbit Wikimedia Commons , Creative Commons license."
acree-pachs-noom,-9.734399,-67.259218,6.017983629999999,-75.53705963,Acre Enclosure 250m - Pachacamac - Observatory Mound e-w ratio @ noom = 1.0 : 0.365239 (-6m) epoch hopewell dy = 365.2423969 days per year 900 × 675 pixels
acroc-amaoc-takcp,-9.455583,-78.250034,-9.511718,-70.923957,Acre Octagon 155m - Amazonas Octagon 155m - Taukachi Circular Plaza n-s ratio @ acroc = 1.0 : 0.618205 (+13m) n-s ratio @ takcp = 1.0 : 0.617586 (-22m) n-s ratio @ amaoc = 1.0 : 2.619207 (-13m) phi ratio 0.618034... : 1.0 = 1.0 : 1.618034...
acroc-hdscl-noom,40.05113889,-82.45013889,7.3412879633333326,-76.32123563,Acre Octagon 155m - Huaca del Sol Centerline - Observatory Mound n-s ratio @ hdscl = 1.0 : 0.036624 (-1m) epoch hopewell ry = 366.242358 rotations per year Newark Octagon - Huaca del Sol - Acre Octagon 155m nocp-hdsol-acroc n-s ratio @ hdsol = 1.0 : 0.036629 (+17m) epoch hopewell ro = 366.256467 rotations per orbit
acroc-nocc-hbwoc,39.29730578,-82.91752083,23.15114183,-77.62844863333333,Acre Octagon 155m - Observatory Circle - High Bank Octagon e-w ratio @ nocc = 1.0 : 0.031409 (-12m) pi = 3.14159265… : 1.0 : 0.3183099…
acroc-nocc-npole,40.05207671,-82.44861007,40.052049104975,-58.104108785025,Acre Octagon 155m - Observatory Circle - North Pole nocc-npole-acroc arcs ratio @ npole = 1.0 : 0.499999 (-6m) Acre Octagon 155m - Observatory Mound acroc-noom arc 51.827238° cosine = 0.618035 (-6m)
acroc-nocga-popoe,-9.895957,-67.519215,20.931230333333332,-80.45640233333334,Acre Octagon 155m - Octagon Gateway - Poverty Point Earthworks e-w ratio @ nocg = 1.0 : 0.600004 (+7m) e-w ratio @ acroc = 1.0 : 0.624998 (-4m) e-w ratio @ acroc = 8.000021 : 5.0 (-4m) Great Circle - Poverty Point A - Rio Branco Double Quadrangle 340 x 240m e-w ratio @ ncec = 1.0 : 0.618044 (+10m) e-w ratio @ rbrdq = 1.0 : 0.618030 (-10m) Poverty Point Earthworks KML file
acroc-noom,40.05113889,-82.45013889,15.077590944999999,-74.984676945,"Acre Octagon 155m - Observatory Mound arc 51.827238° cosine = 0.618035 (-6m) phi ratio 0.618034... : 1.0 = 1.0 : 1.618034... The arc distance from the Newark Octagon's Observatory Mound to the Acre Octagon in Brazil (noom-acroc) equals 51.827238° (cosine = 0.618035).  The angle's cosine equals phi (51.827292° cosine = 0.618034...).  The six meter margin of error is one part in 952,000, about the same as for the monument coordinates.  The angle matches both the Newark Octagon azimuth and the earthwork's lunar major azimuth. Octagons KLM Google Earth file: jqjacobs.net/kml/octagons.kml"
acroc-sealp-garop,-28.625469,-48.892896,-15.994662999999997,-64.88300933333333,Acre Octagon 155m - Sechin Alto Plaza - Garopaba Sambaqui e-w ratio @ sealp = 1.0 : 0.365243 (+2m) epoch hopewell dy = 365.2423969 days per year 1334 × 581 pixels
acroc-secas-chhpc,-9.895957,-67.519215,-9.651691666666666,-74.31329566666666,Acre Octagon 155m - Sechin Alto Sala - Chavin Plaza Circular arcs ratio @ secas = 1.0 : 0.099999 (-2m)
acrqu-fenim-nocp,40.05469583,-82.4442625,15.923808943333333,-80.29960083333333,Acre Quadrangle 188 x 168m - Aguada Fenix Mound - Newark Octagon e-w ratio @ fenim = 1.0 : 0.365010 (-1m) epoch hopewell lr = 0.0365011 lunar orbits per rotation
acrqu-pachs-nocp,-10.087948,-67.311575,5.901319609999999,-75.55255316666667,Acre Quadrangle 188 x 168m - Pachacamac - Newark Octagon e-w ratio @ nocp = 1.0 : 0.366256 (-1m) epoch hopewell ro = 366.256467 rotations per orbit
acrs20-ememo-nocc,40.05207671,-82.44861007,20.647579903333334,-80.28469768999999,Acre Square 190m - Emerald Mound - Observatory Circle e-w ratio @ ememo = 1.0 : 0.365253 (-9m) epoch hopewell ry = 366.242358	rotations per year
acrtq-popoe-noom,40.05113889,-82.45013889,20.93388196333333,-80.27056896333333,"Acre Triple Quadrangle 320 x 230m - Poverty Point Earthworks - Observatory Mound e-w ratio @ popoe = 1.0 : 0.366257 (+0.4m) epoch hopewell ro = 366.256467 rotations per orbit Poverty Point World Heritage Site The central construction consists of six rows of concentric ridges, parts of which were as high as five feet. The ridges form a semi-ellipse or C-shape, divided into sections by at least four aisles. The diameter of the outermost ridge measures nearly three-quarters of a mile. It is thought that these ridges served as foundations for dwellings although little evidence of structures has been found. However, features and midden deposits uncovered during excavations support this hypothesis. Poverty Point is indeed a rare remnant of an exceptional culture. It has been estimated that landscape preparation and earthworks construction may have required moving as many as 53 million cubic feet of soil. Poverty Point Earthworks KML file"
acrts-nocc-pinci,40.05207671,-82.44861007,21.883276570000003,-79.51471035666667,Acre Triple Square 230m - Observatory Circle - Pinson Circle e-w ratio @ acrts = 1.0 : 1.4141205 (+10m) sqrt 2 = 1.414214 Pinson Circle - Observatory Mound pinci-noom arc 6.700588° = 0.01861274 cir (+1m) epoch hopewell ys = 18.6127085 years per lunar standstill period
acrts-nocga,40.053222,-82.446715,15.077782,-74.935053,Acre Triple Square 230m - Newark Octagon Gateway arc 51.853756° tangent = 1.273230 (-24m) 4 / pi = 1.273240 (-24m)
acrts-noom-npole,40.05113889,-82.45013889,40.051160296633334,-49.957843296633335,Acre Triple Square 230m - Observatory Mound - North Pole noom-acrts north pole ratio = 1.0 : 0.500000 (-4m) Acre Triple Square 230m - Octagon Gateway nocga-acrts arc 51.853756° tangent = 1.273230 (-24m) 4 : pi = 1.2732395... : 1.0
amads-assis-machg,-13.162705,-72.54502,-11.087044,-69.74740366666667,Amazonas Double Square 400m - Assis Oval 325 x 272m - Machupicchu High Group e-w ratio @ assis = 1.0 : 0.749992 (-3m) e-w ratio @ machg = 1.0 : 0.571431 (+2m) great circle @ assis = 180.858° Web Archive
amads-emere-nocga,40.053222,-82.446715,20.833620666666665,-80.29902933333334,Amazonas Double Square 400m - Emerald Mound East - Newark Octagon Gateway arcs ratio @ emere = 1.0 : 0.366005 (-14m) epoch hopewell ld = 0.0366010 lunar orbits per day
amads-hpgcu,-13.151962,-72.546578,-11.170145,-69.8753515,"Amazonas Double Square 400m - Gran Caverna UTM arc 6.570242° = 0.500004 r27 (+6m) r27 = lr = 13.1403804° lunar orbit per rotation, epoch hopewell Gran Caverna UTM latitude 13.151962° = 1.000881 r27 Web Archive"
amads-intiu-nocga,40.053222,-82.446715,5.898372666666666,-74.061607,Amazonas Double Square 400m - Intipunku UTM - Newark Octagon Gateway e-w ratio @ intiu = 1.0 : 1.859850 (-1m) epoch qin ot = 18.5984812 orbits per lunar orbit turn
amads-llapg-nocp,40.05469583,-82.4442625,5.898895276666667,-74.08030616666666,Amazonas Double Square 400m - Llactapata Platform Group - Newark Octagon n-s ratio @ nocp = 1.0 : 0.925197 (-11m) epoch hopewell ml = 0.9251987 moons per lunar orbit n-s ratio @ llapg = 1.0 : 0.074803 (-5m) epoch hopewell yl = 0.0748042 years per lunar orbit n-s ratio @ amads = 1.0 : 0.080851 (-6m) epoch hopewell ym = 0.08085204 years per moon
amae12-pachs-nccm,-9.128475,-67.283261,6.216587926666667,-75.53865729666667,Amazonas Enclosure 260m - Pachacamac - Eagle Mound e-w ratio @ nccm = 1.0 : 0.365012 (+3m) epoch hopewell lr = 0.0365011 lunar orbits per rotation Photo credit: Dr. Robert S. Walker
amae27-fenim-nccm,40.04102778,-82.43088889,16.194364926666665,-80.30967496333334,Amazonas Enclosure 185 x 166m - Aguada Fenix Mound - Eagle Mound e-w ratio @ fenim = 1.0 : 0.366241 (-2m) epoch hopewell ry = 366.242358	rotations per year
amae10-amag17-huasc,-9.121133,-77.604069,-9.047819333333335,-70.69998566666666,Amazonas Enclosure 262 x 202m - Amazonas Geoglyph 200 x 170m - Huascarán GPS arcs ratio @ amag17 = 1.0 : 0.003658 (-3m) epoch hopewell ld = 0.0366010 lunar orbits per day Web Archive
amag48-octag,40.053555555,-82.446166665,15.4342662775,-74.8163813325,Amazonas Geoglyph 124 x 98m - Octagon Earthwork colatitude ratio = 1.0 : 0.618035 (+8m) phi ratio 0.618034... : 1.0 = 1.0 : 1.618034...
amao10-ememo-nocp,40.05469583,-82.4442625,20.675672943333335,-80.27392183333332,Amazonas Oval 366 x 316m - Emerald Mound Centerpoint - Newark Octagon e-w ratio @ ememo = 1.0 : 0.365009 (-3m) epoch hopewell lr = 0.0365011 lunar orbits per rotation Web Archive
amaoc-cochp-nocga,40.053222,-82.446715,10.308474666666665,-75.91867733333333,Amazonas Octagon 155m - Cochasqui Pyramid - Newark Octagon Gateway e-w ratio @ cochp = 1.0 : 0.366241 (-1m) epoch hopewell ry = 366.242358 rotations per year
amaoc-machw-ncec,-13.163501,-72.545313,5.897973929999999,-73.99300133666667,Amazonas Octagon 155m - Machupicchu Windows - Great Circle n-s ratio @ machw = 1.0 : 0.074804 (-4m) epoch hopewell yl = 0.0748042 years per lunar orbit n-s ratio @ amaoc = 1.0 : 0.074804 (-3m) epoch hopewell ym = 0.08085204 years per moon n-s ratio @ ncec = 1.0 : 0.925196 (-13m) epoch hopewell ml = 0.9251987 moons per lunar orbit Web Archive
amaoc-mactp-nocga,-9.183614,-67.002622,5.901762333333333,-73.998139,Amazonas Octagon 155m - Machupicchu Tres Portales - Newark Octagon Gateway n-s ratio @ nocga = 1.0 : 0.925199 (+4m) epoch hopewell ml = 0.9251987 moons per lunar orbit n-s ratio @ mactp = 1.0 : 0.074801 (-4m) epoch hopewell ol = 0.0748013 orbits per lunar orbit n-s ratio @ amaoc = 1.0 : 0.080848 (-4m) epoch hopewell om = 0.08084893 orbits per moon Observatory Mound - Intiwatana UTM - Amazonas Quadrangle 175m noom-intih-amaq55 n-s ratio @ noom = 1.0 : 0.925199 (+2m) Amazonas Octagon 155m - Octagon Small Circle - Machupicchu Tres Portales amaoc-nosc-mactp n-s ratio @ nosc = 1.0 : 0.925198 (-2m) Web Archive
amaoc-secac-nocp,-9.183614,-67.002622,7.13532661,-75.89636316666666,Amazonas Octagon 155m - Sechin Alto Cuarto - Newark Octagon e-w ratio @ nocp = 1.0 : 0.272125 (+5m) epoch hopewell dn = 27.2122219 days per lunar nodal period Sechin Alto Cuarto - Chavin Lanzon - Huascarán GPS n-s ratio @ chhla = 1.0 : 0.272113 (-0.5m)
amaov-abuno-rono3,-9.979387,-66.734946,-9.768534,-66.62916899999999,Amazonas Oval 480 x 440m - Abuna Oval 342 x 315m - Rondonia Oval 343 x 279m e-w ratio @ amaov = 1.0 : 0.366316 (+8m) epoch hopewell ro = 366.256467	rotations per orbit
amaov-abuno-xapen,-9.559856,-67.169716,-10.107602666666667,-67.42522466666667,Amazonas Oval 480 x 440m - Abuna Oval 342 x 315m - Xapuri Enclosure 340m arcs ratio @ abuno = 1.0 : 0.333325 (-2m)
amaov-amasq-amadp,-9.472438,-67.273318,-9.397150333333334,-67.220476,Amazonas Oval 480 x 440m - Amazonas Square 337m - Amazonas Double Parallelogram 220m arcs ratio @ amaov = 1.0 : 0.333201 (-6m)
amaov-amasq-mussq,-8.875018,-67.24471,-9.198010333333334,-67.21094,Amazonas Oval 480 x 440m - Amazonas Square 337m - Mustafa Square 260m arcs ratio @ amasq = 1.0 : 1.414411 (-4m) sqrt 2 = 1.414214 great circle bearings @ amaov = 180.67584°
amaov-amazo-amao10,-9.559856,-67.169716,-9.534349,-66.97302166666667,Amazonas Oval 480 x 440m - Amazonas Oval 340 x 320m - Amazonas Oval 366 x 316m n-s ratio @ amao10 = 1.0 : 0.365404 (+5m) epoch hopewell do = 365.2564674 days per orbit Amazonas Oval 480 x 440m - Amazonas Oval 366 x 316m amaov-amao10 n-s : e-w ratio @ amao10 = 1.0 : 0.375049 (+1m)
amaov-amazo-macge,-9.379465,-66.618893,-9.473025666666667,-67.10853666666667,Amazonas Oval 480 x 440m - Amazonas Oval 340 x 320m - Macapa Geoglyph 405 x 380m e-w ratio @ amaov = 1.0 : 0.666793 (+7m)
amaov-beflg-amapa,-9.177379,-67.164573,-9.781631666666668,-67.343446,Amazonas Oval 480 x 440m - Bella Flor Geoglifo 380 x 340m - Amazonas Parallelogram 330m n-s ratio @ amaov = 1.0 : 0.365027 (+2m) epoch chavin lr	= 0.03650105 lunar orbits per rotation
amaov-carac-nccm,40.04102778,-82.43088889,17.05348326,-79.39043963,Amazonas Oval 480 x 440m - Caracol - Eagle Mound arcs ratio @ amaov = 1.0 : 0.714285 (-5m) arcs ratio @ amaov = 7.0 : 4.999993 (-5m) Web Archive
amaov-hpgcu-chhpq,-13.151962,-72.546578,-10.768782666666667,-72.29776566666666,Amazonas Oval 480 x 440m - Gran Caverna UTM - Chavin Plaza e-w ratio @ amaov = 1.0 : 1.861176 (+1m) epoch qin os = 18.6117847 orbits per lunar standstill period Web Archive
amaov-inkar-chhap,-13.150298,-72.546831,-10.768170666666668,-72.29814533333332,Inkaraqay - Chavin Portal - Amazonas Oval 480 x 440m e-w ratio @ amaov = 1.0 : 1.861253 (-1m) epoch qin ys = 18.6125000 years per lunar standstill period
amaov-mpqsr-pachs,-9.559856,-67.169716,-11.662150333333335,-72.205561,Amazonas Oval 480 x 440m - Machupicchu Serpent Rock - Pachacamac n-s ratio @ mpqsr = 1.0 : 0.250008 (+4m) Amazonas Oval 480 x 440m - Machupicchu Residence - Pachacamac amaov-macpr-pachs n-s ratio @ macpr = 1.0 : 0.250019 (+7m) Amazonas Oval 480 x 440m - Machupicchu Courtyard - Pachacamac mapic-pachs-amaov n-s ratio = 1.0 : 0.249959 (-17m) Web Archive
amaov-ncec-chimb,40.04103679,-82.43106901,9.670810263333333,-76.13945611333334,"Amazonas Oval 480 x 440m - Great Circle - Chimborazo GPS arcs ratio @ amaov = 1.0 : 0.273965 (+1m) arcs ratio @ amaov = 1.0 : 3.650107 (+1m) epoch hopewell rl = 27.396467 rotations per lunar orbit What is the highest point on Earth as measured from Earth's center? ... the highest point above Earth’s center is the peak of Ecuador’s Mount Chimborazo, located just one degree south of the Equator where Earth’s bulge is greatest. The summit of Chimborazo is 20,564 feet above sea level. However, due to the Earth’s bulge, the summit of Chimborazo is over 6,800 feet farther from the center of the Earth than Everest’s peak. That makes Chimborazo the closest point on Earth to the stars. Web Archive"
amaov-rbrdq-acrsq,-9.559856,-67.169716,-9.725222333333333,-67.53547099999999,Amazonas Oval 480 x 440m - Rio Branco Double Quadrangle 340 x 240m - Acre Square 185m e-w ratio @ amaov = 1.0 : 0.500094 (+8m) e-w ratio @ acrsq = 1.0 : 0.999623 (-8m)
amaov-rbrdq-rbrds,-9.559856,-67.169716,-9.762084,-67.53542433333332,Amazonas Oval 480 x 440m - Rio Branco Double Quadrangle 340 x 240m - Rio Branco Double Square 150m e-w ratio @ amaov = 1.0 : 0.499903 (-8m)
amaov-tambe-sjuen,-9.559856,-67.169716,-10.938465,-68.15819866666666,Amazonas Oval 480 x 440m - Tambopata Enclosure 400 x 220m - Sao Judas Enclosure 305 x 260m e-w ratio @ amaov = 1.0 : 0.500081 (+18m) e-w ratio @ sjuen = 1.0 : 0.999674 (-18m)
amap1-ememo-nocp,40.05469583,-82.4442625,20.87955161,-80.29585383333334,Amazonas Parallelogram 235 x 175m - Emerald Mound Centerpoint - Newark Octagon e-w ratio @ ememo = 1.0 : 0.366008 (-5m) epoch hopewell ld = 0.0366010 lunar orbits per day
amapa-mwayn-ncec,40.04103679,-82.43106901,5.90235423,-74.04717107,Amazonas Parallelogram 330m - Waynapicchu - Great Circle n-s ratio @ ncec = 1.0 : 0.925199 (+4m) epoch hopewell ml = 0.9251987 moons per lunar orbit n-s ratio @ amapa = 1.0 : 0.080848 (-4m) epoch hopewell om = 0.08084893 orbits per moon n-s ratio @ mwayn = 1.0 : 0.074801 (-4m) epoch hopewell ol = 0.07480132 orbits per lunar orbit
amaq55-nocc,40.05207671,-82.44861007,15.434725855,-74.726866535,Amazonas Quadrangle 175m - Observatory Circle colatitude ratio = 1.0 : 0.618034 (+4m) phi ratio  1.0 : 0.618034 = 1.618034 : 1.0 Amazonas Octagon 155m - Octagon Small Circle nosc-amaoc colatitude ratio = 1.0 : 0.618037 (+25m)
amaqu-nesqc,40.04678331,-82.423833,15.436606655000002,-74.813379,Amazonas Quadrangle 320m - Newark Square colatitude ratio = 1.0 : 0.618031 (-29m) phi ratio 1.0 : 0.618034... = 1.618034... : 1.0 Octagon Apex - Amazonas Double Square noe-amads colatitude ratio = 1.0 : 0.618030 (-37m)
amaqu-nocga-ememo,40.053222,-82.446715,20.838567,-80.29889566666667,Amazonas Quadrangle 320m - Newark Octagon Gateway - Emerald Mound Centerpoint e-w ratio @ ememo = 1.0 : 0.366008 (-6m) epoch hopewell ld = 0.0366010 lunar orbits per day
amasq-chhpc,-9.593754,-77.17795,-9.3764555,-72.198172,Amazonas Square 337m - Chavin Plaza Circular arc 9.835740° = 0.0273215 cir (-7m) epoch chavin dl	= 27.3216705 days per lunar orbit
amasq-ememo-nocga,40.053222,-82.446715,20.843371333333334,-80.304052,Amazonas Square 337m - Emerald Mound - Newark Octagon Gateway e-w ratio @ ememo = 1.0 : 0.366243 (+2m) epoch hopewell ry = 366.242358	rotations per year Photo credit: Dr. Robert S. Walker
amasq-sjuen,-9.159157,-67.218394,-9.9309725,-67.68835,Amazonas Square 337m - Sao Judas Enclosure 305 x 260m arc 1.799972° = cir / 200.00315 (-3m)
amasq-sjuen-tambe,-10.702788,-68.158306,-10.804898666666666,-68.17442466666667,Amazonas Square 337m - Sao Judas Enclosure 305 x 260m - Tambopata Enclosure 400 x 220m arcs ratio @ tambe = 1.0 : 1.861231 (-8m) epoch chavin ys	= 18.6121535 years per lunar standstill period
aripz-fenim-nccm,40.04102778,-82.43088889,16.16523526,-77.63216196333333,Aripuana Zanja 403 x 338m - Aguada Fenix Mound - Eagle Mound e-w ratio @ fenim = 1.0 : 0.273790 (-4m) epoch hopewell od = 0.0027378 orbits per day
aripz-iamae-sebpe,-9.464965,-78.265466,-10.248454666666667,-63.71391,Aripuana Zanja 403 x 338m - Iamacu Earthworks - Sechin Bajo Primer Edificio arcs ratio @ aripz = 1.0 : 0.33340 (+13m)
aripz-lacoe-tikci,17.216872,-89.626539,-0.4099490000000004,-72.51320033333333,Aripuana Zanja 403 x 338m - Laco Enclosure 232 x 188m - Tikal Citadel arcs ratio @ lacoe = 1.0 : 0.272864 (-13m) epoch hopewell rn = 27.2867236 rotations per lunar nodal period
aripz-ldant-acong,-32.653125,-70.011982,-8.083849333333335,-73.07913533333334,Aripuana Zanja 403 x 338m - La Danta GPS - Aconcagua GPS n-s ratio @ ldant = 1.0 : 1.859844 (+7m) epoch qin ot = 18.5984812 orbits per lunar orbit turn
aripz-nesqc-ailli,40.04678331,-82.423833,4.680579270000001,-69.84336539666667,Aripuana Zanja 403 x 338m - Newark Square - Apu Illimani GPS e-w ratio @ aripz = 1.0 : 0.366258 (+4m) epoch hopewell ro = 366.256467 rotations per orbit
aripz-nocp-acong,-32.653125,-70.011982,-0.6494767233333345,-70.59295883333333,Aripuana Zanja 403 x 338m - Newark Octagon - Aconcagua GPS e-w ratio @ nocp = 1.0 : 1.859806 (-10m) epoch chavin ot = 18.598190 orbits per lunar orbit turn Aripuana Zanja 403 x 338m - Newark Square - Aconcagua GPS aripz-nesqc-acong e-w ratio @ nesqc = 1.0 : 1.861221 (-9m) epoch olmec ys = 18.6120854 years per lunar standstill period Aripuana Zanja 403 x 338m - La Danta GPS - Aconcagua GPS aripz-ldant-acong n-s ratio @ ldant = 1.0 : 1.859844 (+7m) epoch qin ot = 18.5984812 orbits per lunar orbit turn Aripuana Zanja 403 x 338m - Newark Square - Apu Illimani GPS aripz-nesqc-ailli e-w ratio @ aripz = 1.0 : 0.366258 (+4m) epoch hopewell ro = 366.256467 rotations per orbit
aripz-noom-bigci,-9.350001,-59.322632,19.08510596333333,-74.23770729666667,Aripuana Zanja 403 x 338m - Observatory Mound - Big Circle n-s ratio @ noom = 1.0 : 0.273211 (+28m) epoch hopewell dl = 27.321666 days per lunar orbit
aripz-secba-popoe,32.636426,-91.403277,4.607264333333333,-76.330266,Aripuana Zanja 403 x 338m - Sechin Bajo - Poverty Point Earthworks n-s ratio @ aripz = 1.0 : 0.002730 (-1m) epoch chavin or = 0.0027303 orbits per rotation Archaeological and Anthropological Sciences 9(6)
assis-amaqu-hpgcu,-13.151962,-72.546578,-11.078543666666667,-69.747523,Assis Oval 325 x 272m - Amazonas Quadrangle 320m - Gran Caverna UTM e-w ratio @ assis = 1.0 : 0.750002 (+1m) great circle @ assis = 179.811° Web Archive
assis-iamac-hdsol,-8.130968,-78.994998,-10.323018333333332,-67.34726533333333,Assis Oval 325 x 272m - Iamacu Circle 168m - Huaca del Sol n-s ratio @ assis = 1.0 : 0.366262 (+2m) epoch hopewell ro = 366.256467 rotations per orbit Assis Mound Village - Iamacu Earthworks - Huaca del Sol assiv-iamae-hdsol n-s ratio @ assiv = 1.0 : 0.366285 (+9m) Web Archive
assis-rono3-abuov,-9.766359,-65.982845,-10.252012333333333,-67.44845933333333,Assis Oval 325 x 272m - Rondonia Oval 343 x 279m - Abuna Oval 220 x 210m arcs ratio @ assis = 1.0 : 0.745009 (-3m) epoch hopewell on = 0.0745017 orbits per lunar nodal period Web Archive
assiv-grcrm-noe,-10.911815,-69.533041,23.02033944333333,-77.57331921999999,Assis Mound Village - Grave Creek Mound GPS - Octagon Apex e-w ratio @ noe = 1.0 : 0.002729 (-5m) epoch hopewell or = 0.0027303 orbits per rotation e-w ratio @ noe = 1.0 : 0.002737 (-5m) epoch hopewell od = 0.00273780 orbits per day e-w ratio @ noe = 1.0 : 0.997271 (+5m) epoch hopewell dr = 0.99726967 days per rotation
assiv-hdscl-noom,40.05113889,-82.45013889,7.002668629999999,-76.99251096333334,Assis Mound Village - Huaca del Sol Centerline - Observatory Mound e-w ratio @ hdscl = 1.0 : 0.365254 (-2m) epoch hopewell do = 365.2564674	days per orbit Assis Mound Village - Huaca del Sol - Observatory Circle nocc-hdsol-assiv e-w ratio @ hdsol = 1.0 : 0.365000 (-11m) epoch hopewell lr = 0.0365011 lunar orbits per rotation Web Archive
assiv-hdsol-nocc,40.05207671,-82.44861007,7.003097903333334,-76.99221635666667,Assis Mound Village - Huaca del Sol - Observatory Circle e-w ratio @ hdsol = 1.0 : 0.365000 (-11m) epoch hopewell lr = 0.0365011 lunar orbits per rotation Web Archive
assiv-huasc-nocga,40.053222,-82.446715,6.673424666666666,-76.52794166666666,Assis Mound Village - Huascarán GPS - Newark Octagon Gateway e-w ratio @ nocga = 1.0 : 0.375001 (+2m) e-w ratio @ huasc = 1.0 : 0.600004 (+2m)
assiv-iamae-hdsol,-8.130968,-78.994998,-10.324393666666667,-67.360557,Assis Mound Village - Iamacu Earthworks - Huaca del Sol n-s ratio @ assiv = 1.0 : 0.366285 (+9m) epoch hopewell ro = 366.256467 rotations per orbit
bace8-bace6-bacg2,-8.848226,-66.990809,-8.867385333333333,-67.02011833333333,Boca do Acre Enclosure 226 x 220m - Boca do Acre Enclosure 222 x 190m - Boca do Acre Geoglyph 160m arcs ratio @ bacg2 = 1.0 : 0.500149 (+1m) e-w ratio @ bacg2 = 1.0 : 0.499864 (-1m) n-s ratio @ bacg2 = 1.0 : 0.500770 (+3m) Photo credit: Dr. Robert S. Walker
bacq5-ememo-nccm,40.04102778,-82.43088889,20.998514593333333,-80.28437962999999,Boca do Acre Quadrangle 250 x 180 - Emerald Mound - Eagle Mound e-w ratio @ ememo = 1.0 : 0.366244 (+3m) epoch hopewell ry = 366.242358 rotations per year
bacrq-cruzq-mussq,-8.875018,-67.24471,-8.845414,-67.23358466666666,Boca do Acre Quadrangle 408m - Cruzeirinho Quadrangle 330 x 260m - Mustafa Square 260m arcs ratio @ bacrq = 1.0 : 0.777866 (+1m) n-s ratio @ bacrq = 1.0 : 0.500962 (+6m)
bacrs-emere-nocga,40.053222,-82.446715,20.95781,-80.29910533333333,Boca do Acre Square 408m - Emerald Mound East - Newark Octagon Gateway e-w ratio @ emere = 1.0 : 0.366008 (-4m) epoch hopewell ld = 0.0366010 lunar orbits per day
bacrs-fcenc-noe,40.05597222,-82.44219444,19.39841874,-76.93739448000001,Boca do Acre Square 408m - Fort Center Circle - Octagon Apex n-s ratio @ fcenc = 1.0 : 0.366246 (+16m) epoch hopewell ry = 366.242358	rotations per year
bacsq-ememo-nccm,40.04102778,-82.43088889,20.985719593333332,-80.28460163,Boca do Acre Square 175m - Emerald Mound Centerpoint - Eagle Mound e-w ratio @ ememo = 1.0 : 0.366254 (-7m) epoch hopewell ro = 366.256467 rotations per orbit
beflg-acrcs-scamp,-9.960813,-67.498246,-10.208758333333334,-67.50111533333333,Bella Flor Geoglifo - Acre Square with Circle - Sol de Campinas arcs ratio @ scamp = 1.0 : 0.314024 (-7m)
beflg-amats-scamp,-10.60766,-67.696049,-9.931196333333332,-67.406149,Bella Flor Geoglifo 380 x 340m - Amazonas Triple Square 260m - Sol de Campinas Village n-s ratio @ amats = 1.0 : 0.628357 (+6m) pi * 2.0 = 6.2831853... : 1.0 : 0.159154943… Photo credit: Dr. Robert S. Walker
beflg-amazo-macge,-10.60766,-67.696049,-9.822309666666667,-67.283889,Bella Flor Geoglifo 380 x 340m - Amazonas Oval 340 x 320m - Macapa Geoglyph 405 x 380m arcs ratio @ macge = 1.0 : 0.800001 (+0.1m)
beflg-befci,-10.596084,-67.689696,-10.601872,-67.6928725,Bella Flor Geoglifo - Bella Flor Circle arc 0.01315° = 0.001001 r27 (+1m)
beflg-etrig-amapa,-12.536847,-69.111076,-10.773962,-67.990566,Bella Flor Geoglifo - El Triunfo Geoglifo - Amazonas Parallelogram e-w ratio @ amapa = 1.0 : 0.273041 (-0.4m) epoch hopewell yr = 0.0027304 years per rotation
beflg-lakak-huasc,-16.553836,-68.676134,-12.094209666666666,-71.32541733333333,Bella Flor Geoglifo 380 x 340m - Lakakollu - Huascarán GPS n-s ratio @ beflg = 1.0 : 0.249997 (-2m)
belav-ailli-nocp,40.05469583,-82.4442625,4.413180443333334,-72.39302089666666,Bela Vista Geoglyph 420m - Apu Illimani GPS - Newark Octagon e-w ratio @ belav = 1.0 : 18.611168 (+4m) epoch hopewell os = 18.6119915 orbits per lunar standstill period
belav-sjudc-rono1,-9.773876,-66.038996,-10.174320999999999,-66.98643,Bela Vista Geoglyph 420m - Sao Judas Circle 320m - Rondonia Oval 320 x 254m great circle = 180.0928°
crusq-pachp-nocga,-8.843836,-67.253226,6.316319666666666,-75.53362533333333,Cruzeirinho Square 300m - Templo Pintado A - Newark Octagon Gateway e-w ratio @ nocga = 1.0 : 0.365010 (-0.5m) epoch hopewell lr = 0.0365011 lunar orbits per rotation
espee-chhpq-octag,-10.074027,-68.01075,6.794999518333334,-75.87797322166666,Esperanca Enclosure 290 x 217m - Chavin Plaza - Octagon Earthwork e-w ratio @ octag = 1.0 : 0.365016 (+9m) epoch hopewell lr = 0.0365011 lunar orbits per rotation Photo credit: Dr. Robert S. Walker
iamav-huasc-chimb,-1.46875,-78.81758333,-7.507755,-69.99179044333333,Iamacu Village - Huascarán GPS - Chimborazo GPS n-s ratio @ huasc = 1.0 : 0.367500 (+15m) epoch hopewell nd = 0.0367482 lunar nodal periods per day David Torres Costales
lacoe-cojos-ncec,40.04103679,-82.43106901,1.278232263333333,-73.18792100333333,"Laco Enclosure 232 x 188m - Cumbre Ojos del Salado - Great Circle n-s ratio @ lacoe = 1.0 : 0.366580 (+11m) emr = 3.6657760 earth moon ratio, mean diameters Web Archive"
lacoe-cojos-nocp,40.05469583,-82.4442625,1.2827852766666663,-73.19231883333333,Laco Enclosure 232 x 188m - Cumbre Ojos del Salado - Newark Octagon n-s ratio @ lacoe= 1.0 : 0.366478 (-4m) epoch hopewell nr = 0.0366479 lunar nodal periods per rotation Laco Enclosure 232 x 188m - Observatory Mound arc : e-w° = 1.0 : 0.272858 (-51m) epoch hopewell rn = 27.28672357 rotations per lunar nodal period Web Archive
lacoe-hdsol-huasc,-9.096718,-68.59043,-8.782939666666666,-75.06316566666666,Laco Enclosure 232 x 188m - Huaca del Sol - Huascarán GPS e-w ratio @ hdsol = 1.0 : 0.133684 (-3.5m) epoch hopewell lo = 13.3687481 lunar orbits per solar orbit
lacoe-huasc,-9.121133,-77.604069,-9.1089255,-73.0972495,Huascarán GPS - Laco Enclosure 232 x 188m arc : n-s = 1.0 : 0.002743 (+3.6m) epoch hopewell rl = 27.3964674 rotations per lunar orbit arc : n-s = 1.0 : 0.002743 (+5.4m) epoch hopewell od = 0.0027378 orbits per day arc : n-s = 1.0 : 0.002743 (+13m) epoch hopewell or = 0.00273033 orbits per rotation
lacoe-huasc-chimb,-9.096718,-68.59043,-6.562200333333333,-75.00402744333333,Laco Enclosure 232 x 188m - Huascarán GPS - Chimborazo GPS n-s ratio @ huasc = 1.0 : 0.003191 (+6m) n-s ratio @ huasc = 1.0 : 313.4296 (+6m) pi 3.14159265… : 1.0 : 0.3183099…
lacoe-noom-grcrm,-9.096718,-68.59043,23.623760666666666,-77.26176370333333,"Laco Enclosure 232 x 188m - Observatory Mound - Grave Creek Mound GPS n-s ratio @ noom = 1.0 : 0.002732 (-0.3m) epoch hopewell dl = 27.321666 days per lunar orbit n-s ratio @ grcrm = 1.0 : 0.002740 (-0.3m) epoch hopewell rl = 27.3964674 rotations per lunar orbit n-s ratio @ lacoe = 1.0 : 0.997268 (+10m) epoch hopewell dr = 0.99726967 days per rotation n-s ratio @ noom = 1.0 : 0.002732 (+10m) epoch hopewell or = 0.00273033 orbits per rotation n-s ratio @ noom = 1.0 : 0.002740 (+10m) epoch hopewell od = 0.00273780 orbits per day noom-grcrm arc 1.313591° = 0.0036489 cir epoch hopewell lr = 0.03650106 lunar orbits per rotation noom-grcrm arc 1.313591° = cir / 274.0578499 epoch hopewell rl = 27.3964674 rotations per lunar orbit Laco Oval 360 x 314m - Observatory Mound - Grave Creek Mound GPS lacoo-noom-grcrm n-s ratio @ noom = 1.0 : 0.002728 (-0.6m) epoch hopewell mer = 0.2727935	moon earth ratio, mean diameters"
lacoe-pichi-huasc,-9.121133,-77.604069,-6.1308560000000005,-74.93170533333334,Laco Enclosure 232 x 188m - Pichincha - Huascarán GPS n-s ratio @ lacoe = 1.0 : 0.002736 (-1m) epoch hopewell od = 0.00273780 orbits per day n-s ratio @ huasc = 1.0 : 0.002729 (-1m) epoch hopewell or = 0.00273033 orbits per rotation n-s ratio @ pichi = 1.0 : 0.997271 (+1m) epoch hopewell dr = 0.9972697 days per rotation
lacog-cojos-ncec,40.04103679,-82.43106901,1.2743232633333328,-73.19442767,Laco Geoglyph 250m - Cumbre Ojos del Salado - Great Circle n-s ratio @ lacog = 1.0 : 0.366254 (-15m) epoch hopewell ro = 366.256467	rotations per orbit Web Archive
lacog-mwayn-huasc,-9.108445,-68.60995,-10.4620577,-72.91996339999999,Laco Geoglyph 250m - Waynapicchu - Huascarán GPS n-s ratio @ huasc = 1.0 : 0.003144 (+1m) Web Archive
lacoo-aripz-iamae,-9.170129,-68.657138,-10.150176,-60.511134,Laco Oval 360 x 314m - Iamacu Earthworks - Aripuana Zanja 403 x 338m e-w ratio @ lacoo = 1.0 : 0.618036 (+3m) e-w ratio @ aripz = 1.0 : 0.618029 (-5m) phi ratio 1.0 : 0.618034... = 1.618034... : 1.0 e-w ratio @ iamae = 1.0 : 2.618046 (-3m) phi squared = 2.618034…
lacoo-aripz-tuchz,-9.170129,-68.657138,-9.888669666666667,-64.713237,Laco Oval 360 x 314m - Aripuana Zanja 403 x 338m - Tumi Chucua Zanja e-w ratio @ tuchz = 1.0 : 0.365231 (-9m) epoch hopewell dy = 365.2423969	days per year
lacoo-fenix-denal,63.06921667,-151.0067,23.901142556666667,-103.601667,Laco Oval 360 x 314m - Aguada Fenix - Denali GPS e-w ratio @ lacoo = 1.0 : 0.273032 (-11m) epoch hopewell or = 0.0027303 orbits per rotation
lacoo-gpcah,-9.170129,-68.657138,-11.994482,-71.8869435,Laco Oval 360 x 314m - Gran Piramide Cahuachi arc : n-s ratio = 1.0 : 0.666662 (-5m) Caral Monolith - Gran Templo Cahuachi - Cumbre Ojos del Salado caram-gtcah-cojos arcs ratio @ caram = 1.0 : 0.249997 (-5m) e-w ratio @ gtcah = 1.0 : 0.365288 (+23m) epoch hopewell do = 365.2564674 days per orbit Caral Pyramid - Gran Piramide Cahuachi - Cumbre Ojos del Salado carap-gpcah-cojos e-w ratio @ gpcah = 1.0 : 0.366034 (+18m) epoch hopewell ld = 0.0366010 lunar orbits per day
lacoo-huasc-cojos,-27.109622,-68.542264,-15.133628000000002,-71.601157,Laco Oval 360 x 314m - Huascarán GPS - Cumbre Ojos del Salado n-s ratio @ lacoo = 1.0 : 0.002731 (+2m) epoch hopewell or = 0.0027303 orbits per rotation
lacoo-iamav-hdscl,-11.933382,-53.55371900000001,-9.744943,-67.06840333333334,Laco Oval 360 x 314m - Iamacu Village - Huaca del Sol Centerline n-s ratio @ hdscl = 1.0 : 0.366015 (+3m) epoch hopewell dl = 27.321666 days per lunar orbit Huaca de la Luna - Laco Oval 360 x 314m - Iamacu Earthworks hluna-lacoo-iacue n-s ratio @ lacoo = 1.0 : 0.375010 (+3m)
lacoo-lacoe,-9.170129,-68.657138,-9.1334235,-68.623784,Laco Oval 360 x 314m - Laco Enclosure 232 x 188m arc 0.098626° = 0.100066 so (+7m) arc 0.098626° = 0.0002740 cir (+0.2m) epoch hopewell rl = 27.396467 rotations per lunar orbit arc 0.098626° = cir / 3650.1680 (+0.2m) epoch hopewell lr = 0.03650106 lunar orbits per rotation
lacoo-sebsc-cojos,-9.170129,-68.657138,-15.247994,-71.82101166666666,Laco Oval 360 x 314m - Sechin Bajo Sunken Court - Cumbre Ojos del Salado n-s ratio @ sebsc = 1.0 : 0.016667 (+1m)
lacoo-silcq-cojos,-27.109622,-68.542264,-17.334125,-69.11936666666666,Laco Oval 360 x 314m - Sillustani Chullpa Quadrada - Cumbre Ojos del Salado n-s ratio @ lacoo = 1.0 : 0.365255 (-2m) epoch hopewell do = 365.2564674 days per orbit Laco Oval 360 x 314m - Sillustani Stone Tower I - Cumbre Ojos del Salado lacoo-sils1-cojos n-s ratio @ lacoo = 1.0 : 0.365253 (-7m) epoch hopewell dy = 365.2423969 days per year Laco Oval 360 x 314m - Sillustani Stone Tower I - Cumbre Ojos del Salado lacoo-sils1-cojos n-s ratio @ lacoo = 1.0 : 0.365248 (+10m) epoch hopewell dy = 365.2423969 days per year Web Archive
lacoo-sils3-cojos,-27.109622,-68.542264,-17.334111,-69.11873000000001,Laco Oval 360 x 314m - Sillustani Towers - Cumbre Ojos del Salado n-s ratio @ lacoo = 1.0 : 0.365253 (-7m) epoch hopewell do = 365.2564674 days per orbit Laco Oval 360 x 314m - Sillustani Stone Tower I	 - Cumbre Ojos del Salado lacoo-sils1-cojos n-s ratio @ lacoo = 1.0 : 0.365253 (-7m) epoch hopewell dy = 365.2423969 days per year Web Archive Web Archive
lacoo-tikci-cojos,-9.170129,-68.657138,-6.354293000000001,-75.608647,Laco Oval 360 x 314m - Tikal Citadel - Cumbre Ojos del Salado arcs ratio @ cojos = 1.0 : 0.367481 (-8m) epoch hopewell nd = 0.0367482 lunar nodal periods per day Cumbre Ojos del Salado - Huascarán GPS - Tikal Group G cojos-huasc-tikag greeat circle = 180.0078° Web Archive
lacoo-tikti-denal,63.06921667,-151.0067,23.704537223333336,-103.092757,Laco Oval 360 x 314m - Tikal Temple of the Inscriptions - Denali GPS n-s ratio @ lacoo = 1.0 : 0.365239 (-24m) epoch hopewell dy = 365.2423969	days per year Web Archive
lacov-adosa-denal,19.682002,-98.846623,24.46304589,-106.185787,Laco Village Geoglyph 196m - Adosada - Denali GPS e-w ratio @ lacov = 1.0 : 0.366241 (-15m) epoch hopewell ry = 366.242358	rotations per year
lacov-fenpw-denal,17.803596,-91.16203800000001,23.836910556666666,-103.62425866666666,Laco Village Geoglyph 196m - Aguada Fenix Piramide West - Denali GPS e-w ratio @ lacov = 1.0 : 0.272871 (+33m) epoch hopewell rn = 27.2867236 rotations per lunar nodal period
lacov-huasc-popoe,32.636426,-91.403277,4.717737333333333,-79.237128,Laco Village Geoglyph 196m - Huascarán GPS - Poverty Point Earthworks arcs ratio @ lacov = 1.0 : 0.185981 (-2m) epoch chavin ot = 18.5981902 orbits per lunar orbit turn
lacov-nesqc-denal,40.04678331,-82.423833,31.25130632666667,-100.71152366666666,Laco Village Geoglyph 196m - Newark Square - Denali GPS arcs ratio @ lacov = 1.0 : 1.859935 epoch hopewell yt = 18.5993727 years per lunar orbit turn
lloma-cargp-noa,-15.201527,-64.469906,4.653911186666668,-74.81256207333332,"La Loma - Caral Greater Pyramid - Octagon Entrance e-w ratio @ noa = 1.0 : 0.273963 (-4m) epoch hopewell rl = 27.396467 rotations per lunar orbit Creative Commons — Prümers et.al., Nature volume 606 — modified, cropped."
lloma-chhha-noe,40.05597222,-82.44219444,5.086728740000001,-74.69679648,La Loma - Chavin A - Octagon Apex e-w ratio @ lloma = 1.0 : 1.414207 (+6m) square root of two = 1.414214 La Loma Zanja - Chavin A - Octagon Apex loma-chhha-znoe e-w ratio @ lomaz = 1.0 : 1.414202 (-11m) square root of two = 1.414214
lloma-chhpq-nocc,40.05207671,-82.44861007,5.085339903333334,-74.69850635666667,"La Loma - Chavin Plaza - Observatory Circle arcs ratio @ chhpq = 1.0 : 0.272867 (+1.5m) epoch hopewell rn = 27.2867236 rotations per lunar nodal period Creative Commons — Prümers et.al., Nature volume 606 — modified, cropped."
lloma-popma-nccm,32.63526,-91.411175,19.158253593333335,-79.43732329666666,"La Loma - Poverty Point A - Eagle Mound e-w ratio @ lloma = 1.0 : 0.666672 (+12m) The Great Circle Earthwork, Newark, Ohio From Eagle Mound, the co-joined central mounds, the monument entrance frames a lunar alignment—the northerly minimum lunar rise azimuth.  The entrance is km/6 from Eagle Mound at bearing North 67.12° East.  The museum entrance arch is also framed by Great Circle's gateway."
llomp-nccm-huasc,40.04102778,-82.43088889,5.239276593333334,-74.83473629666666,"La Loma Pyramid - Eagle Mound - Huascarán GPS arcs ratio @ huasc = 1.0 : 0.367483 (+1m) epoch hopewell nd = 0.0367482 lunar nodal periods per day Creative Commons — Prümers et.al., Nature volume 606 — modified, cropped."
lomaz-pupup,-16.561622,-68.680141,-15.881653,-66.574943,La Loma Zanja - Puma Punku Pyramid arc : n-s = 3.141135 : 1.0 (+22m) pi 3.14159265… : 1.0 : 0.3183099…
lomxc-huasc-noe,40.05597222,-82.44219444,5.2237910733333335,-74.80158547999999,Loma X Zanja Center 2100 x 1550m - Huascarán GPS - Octagon Apex e-w ratio @ huasc = 1.0 : 0.365263 (+10m) epoch hopewell do = 365.2564674 days per orbit
lomxz-sjudc-neew,40.05283333,-82.418,4.73360811,-71.58141766666667,Loma X Zanja - Sao Judas Circle 320m - Newark Ellipse Work e-w ratio @ sjudc = 1.0 : 0.249985 (-20m)
lporz-nccm-huasc,40.04102778,-82.43088889,5.35195926,-74.80829163,Los Portones Zanja 1330 x 918m - Eagle Mound - Huascarán GPS e-w ratio @ huasc = 1.0 : 0.365277 (+29m) epoch hopewell do = 365.2564674 days per orbit Loma X Zanja Center 2100 x 1550m - Octagon Apex - Huascarán GPS lomxc-noe-huasc e-w ratio @ huasc = 1.0 : 0.365263 (+10m)
lporz-nocga-huasc,40.053222,-82.446715,5.356023999999999,-74.81356699999999,Los Portones Zanja 1330 x 918m - Newark Octagon Gateway - Huascarán GPS e-w ratio @ huasc = 1.0 : 0.366474 (-6m) epoch hopewell nr = 0.0366479 lunar nodal periods per rotation
lslor-watba-noom,40.05113889,-82.45013889,18.96856096333333,-80.08763863000001,Loma San Lorenzo - Watson Brake A - Observatory Mound e-w ratio @ watba = 1.0 : 0.366009 (-3m) epoch olmec ld = 0.0366010 lunar orbits per day San Lorenzo Zanja 1015 x 660m - Watson Brake A - Observatory Mound slorz-watba-noom e-w ratio @ watba = 1.0 : 0.366013 (+9m)
madsq-garop-huasc,-28.625469,-48.892896,-15.992538999999999,-63.920742999999995,"Madeira Square 244m - Garopaba Sambaqui - Huascarán GPS arcs ratio @ madsq = 1.0 : 1.961280 (-6m) epoch hopewell es = 19.6127085 eclipse nodal intervals per standstill period Madeira Square 244m - Montaña Machupicchu - Huascarán GPS madsq-mmapi-huasc n-s ratio @ huasc = 1.0 : 0.273801 (+5m) epoch hopewell yd = 0.0027379 years per day Largest shell mound in the Santa Catarina area, in volume nearly equal to Monks Mound. Wikimedia Commons"
muraw-noom-acong,40.05113889,-82.45013889,-0.7134640366666686,-72.63855163000001,"Muralha Wall - Observatory Mound - Aconcagua GPS e-w ratio @ acong = 1.0 : 0.366489 (+14m) epoch hopewell nr = 0.0366479 lunar nodal periods per rotation Muralha Wall - Newark Octagon Gateway - Aconcagua GPS muraw-nocga-acong e-w ratio @ acong = 1.0 : 0.366590 (+17m) emr = 3.6657760 earth moon ratio, mean diameters"
muss2-chhha-pachs,-12.262789,-76.901822,-10.247936666666666,-73.776997,Mustafa Quadrangle 205m - Chavin de Huantar A - Pachacamac arcs ratio @ chhha = 1.0 : 0.273043 (+0.1m) epoch inca yr = 0.00273043 years per rotation
muss4-lsunm-noom,40.05113889,-82.45013889,20.540862296666667,-80.29723663,Mustafa Square 230m - LSU North Mound - Observatory Mound e-w ratio @ lsunm = 1.0 : 0.365009 (-4m) epoch hopewell lr = 0.0365011 lunar orbits per rotation LSU North Mound - Denali GPS - Aconcagua GPS lsunm-denal-acong arcs ratio @ lsunm = 1.0 : 0.750003 (+20m) Wikimedia Commons
muss4-pachs-noom,-8.843907,-67.259424,6.314814296666666,-75.53712829666667,Mustafa Square 230m - Pachacamac - Observatory Mound e-w ratio @ noom = 1.0 : 0.365244 (+3m) epoch hopewell dy = 365.2423969	days per year
mussq-chhpq,-9.59453,-77.177003,-9.234774000000002,-72.2108565,Mustafa Square 260m - Chavin Plaza arc 9.829544° = 0.0273043 cir (-1.5m) epoch inca yr = 0.00273043 years per rotation
mussq-itauq-bacsq,-8.875018,-67.24471,-8.771426,-67.23500733333333,Mustafa Square 260m - Itaúba Quadrangle 200 x 180m - Boca do Acre Square 175m e-w ratio @ itauq = 1.0 : 0.365953 (-1m) epoch hopewell ld = 0.03660099 lunar orbits per day
pcoto-acrs7-mmapi,-13.1747376,-72.5419075,-12.728378533333334,-68.21447916666666,Piramide Cotoca - Acre Square 220m - Montaña Machupicchu n-s ratio @ pcoto = 1.0 : 0.365013 (+1m) epoch hopewell lr = 0.0365011 lunar orbits per rotation Photo credit: Dr. Robert S. Walker
pcoto-maccr-kalag,-14.985206,-64.593492,-14.900880333333333,-68.603607,Piramide Cotoca - Machupicchu Carved Rock - Kalasasaya Gateway n-s ratio @ maccr = 1.0 : 1.861196 (+1m) epoch hopewell os = 18.6119915 orbits per lunar standstill period
rbrci-macht,-13.164079,-72.544742,-11.5185295,-70.03957750000001,Rio Branco Circle 160m - Machupicchu Torreon latitude ratio = 1.0 : 0.749994 (-9m) Rio Branco Double Square 150m - Inca Trail Carved Rock rbrds-intcr latitude ratio = 1.0 : 0.749993 (-11m) Web Archive Photo credit: Dr. Robert S. Walker
rbrdq-acrds-acrdp,-9.856223,-66.94084,-9.868684,-67.42199,Rio Branco Double Quadrangle 340 x 240m - Acrelandia Double Square 170m - Acre Double Parallelogram 125m arcs ratio @ rbrdq = 1.0 : 0.499943 (-6m) Photo credit: Dr. Robert S. Walker
rbrdq-acrds-amae8,-9.848813,-67.90118,-9.641363,-67.34859133333333,Rio Branco Double Quadrangle 340 x 240m - Acrelandia Double Square 170m - Amazonas Enclosure 247 x 214m e-w ratio @ acrds = 1.0 : 0.2732772 (-1m) epoch hopewell od = 0.0027378 orbits per day
rbrdq-amaqu-acrds,-9.848813,-67.90118,-9.626202,-67.348315,Rio Branco Double Quadrangle 340 x 240m - Amazonas Quadrangle 320m - Acrelandia Double Square 170m e-w ratio @ acrds = 1.0 : 0.272909 (-13m) epoch chavin or = 0.0027303 orbits per rotation
rbrdq-amasq-etrig,-12.536847,-69.111076,-10.514939,-68.07688333333333,Rio Branco Double Quadrangle 340 x 240m - Amazonas Square 337m - El Triunfo Geoglifo 480 x 300m arcs ratio @ amasq = 1.0 : 0.250022 (+10m)
rbrdq-acrts-acrds,-9.856223,-66.94084,-9.867564666666667,-67.42180366666666,Rio Branco Double Quadrangle 340 x 240m - Acre Triple Square 230m - Acrelandia Double Square 170m arcs ratio @ rbrdq = 1.0 : 0.500145 (+15m) Rio Branco Double Quadrangle 340 x 240m - Acrelandia Double Square 170m - Acre Double Parallelogram 125m rbrdq-acrds-acrdp arcs ratio @ rbrdq = 1.0 : 0.499943 (-6m)
rbrdq-forte-bacsq,-9.848813,-67.90118,-9.234031333333334,-67.50883033333334,Rio Branco Double Quadrangle 340 x 240m - Fortaleza Enclosure 314 x 278m - Boca do Acre Square 175m n-s ratio @ bacsq = 1.0 : 0.366247 (+1m) epoch chavin ry = 366.242556 rotations per year
rbrdq-lomxz-huasc,-9.121133,-77.604069,-11.410992666666667,-69.95412566666666,Rio Branco Double Quadrangle 340 x 240m - Loma X Zanja - Huascarán GPS e-w ratio @ rbrdq = 1.0 : 0.365257 (+1m) epoch inca do = 365.256392 days per orbit
rbrdq-mapic-pupup,-13.163568,-72.545397,-13.191334333333332,-69.708906,Rio Branco Double Quadrangle 340 x 240m - Machupicchu Courtyard - Puma Punku arcs ratio @ rbrdq = 1.0 : 0.833326 (-6m) Web Archive
rbrdq-maspz-nocga,40.053222,-82.446715,15.749702666666666,-82.37203699999999,Rio Branco Double Quadrangle 340 x 240m - Monte Alban Sunken Plaza - Newark Octagon Gateway arcs ratio @ maspz = 1.0 : 0.666668 (+8m) Octagon Gateway - Monte Alban Sunken Plaza - Puma Punku nocga-maspz-pupup arcs ratio @ pupup = 1.0 : 0.0749999 (-5m) Octagon Gateway - Monte Alban North Pyramid - Puma Punku nocga-moanp-pupup arcs ratio @ pupup = 1.0: 0.0750001 (+5m) Web Archive
rbrdq-popma-ncec,-9.848813,-67.90118,20.942494596666666,-80.58114133666668,Rio Branco Double Quadrangle 340 x 240m - Poverty Point A - Great Circle e-w ratio @ ncec = 1.0 : 0.618044 (+16m) e-w ratio @ rbrdq = 1.0 : 0.618030 (-10m) e-w ratio @ popma = 1.0 : 2.618009 (+10m) Newark Octagon - Poverty Point Earthworks - Rio Branco Double Quadrangle 340 x 240m nocp-popoe-rbrdq arcs ratio @ nocp = 1.0 : 0.199999 (-4m) Web Archive
rbrdq-popoe-nocp,-9.848813,-67.90118,20.947436276666668,-80.58290649999999,Rio Branco Double Quadrangle 340 x 240m - Poverty Point Earthworks - Newark Octagon arcs ratio @ nocp = 1.0 : 0.199999 (-4m)
rbrdq-rong23-kalas,-16.554812,-68.672469,-12.07998133333333,-67.64399266666668,Rio Branco Double Quadrangle 340 x 240m - Rondonia Geoglyph 280m - Kalasasaya Sunken Court e-w ratio @ rbrdq = 1.0 : 0.499912 (-15m) e-w ratio @ kalas = 1.0 : 0.333294 (-10m)
rbrdq-sjuen-rong23,-9.836319,-66.358329,-10.129306666666666,-67.472605,Rio Branco Double Quadrangle 340 x 240m - Sao Judas Enclosure 305 x 260m - Rondonia Geoglyph 280m e-w ratio @ rbrdq = 1.0 : 0.166656 (-2m)
rbrdr-winta-nocp,40.05469583,-82.4442625,21.220938943333334,-80.34652216666667,Rio Branco Double Rectangle 147 x 138m - Winterville A - Newark Octagon e-w ratio @ winta = 1.0 : 0.366242 (-1m) epoch hopewell ry = 366.242358 rotations per year Web Archive
rbrds-salka,-13.333783,-72.543267,-11.605682999999999,-70.039322,Rio Branco Double Square 150m - Salkantay GPS arc 6.000038° = 0.01666677 cir (+4m)
riohe-chhla-nccm,40.04102778,-82.43088889,6.94574226,-75.79337696333334,Riozinho Hexagon 490 x 295m - Eagle Mound - Chavin Lanzon arcs ratio @ chhla = 1.0 : 0.185981 (-6m) epoch chavin ot = 18.5981902 orbits per lunar orbit turn Riozinho Hexagon 490 x 295m - Chavin Huaca A - Eagle Mound riohe-chhha-nccm arcs ratio @ chhha = 1.0 : 0.185978 (-1m) epoch neolithic ot = 18.5977709 orbits per lunar orbit turn
riohe-nocc-grcrm,40.05207671,-82.44861007,23.452942606666667,-76.98808009666668,Riozinho Hexagon 490 x 295m - Observatory Circle - Grave Creek Mound GPS n-s ratio @ grcrm = 1.0 : 0.002730 (-1m) epoch hopewell or = 0.0027303 orbits per rotation
rong23-hdscl-nocga,40.053222,-82.446715,7.361861666666666,-75.93313233333333,Newark Octagon Gateway - Huaca del Sol Centerline - Rondonia Geoglyph 280m e-w ratio @ hdscl = 1.0 : 0.273216 (-1m) epoch hopewell dl = 27.321666 days per lunar orbit Newark Octagon - Fort Center Mound - Huaca de la Luna nocp-fcenm-hluna arcs ratio @ nocp = 1.0 : 0.272123 (+3m) epoch hopewell dn = 27.2122219 days per lunar nodal period
rong23-salka,-9.836319,-66.358329,-11.585051,-69.45079799999999,Rondonia Geoglyph 280m - Salkantay GPS arc : n-s ratio = 1.0 : 0.500002 (+1m)
rong30-ncec,40.04103679,-82.43106901,15.080769895,-74.499947005,Rondonia Geoglyph 324 x 308m Great Circle - n-s 49.920534° = 1.861275 s22 (+13m) epoch hopewell ys = 18.6127085 years per lunar standstill period
ronge-aripz-macht,-13.164079,-72.544742,-10.791928333333333,-66.097979,Rondonia Geoglyph 432m - Aripuana Zanja 403 x 338m - Machupicchu Torreon e-w ratio @ aripz = 1.0 : 1.861239 (+0.5m) epoch inca os = 18.6123968 orbits per lunar standstill period Rondonia Geoglyph 432m - Aripuana Zanja 403 x 338m - Machupicchu Carved Rock ronge-aripz-maccr e-w ratio @ aripz = 1.0 : 1.861204 (-2m) Web Archive
ronge-belav-beflg,-9.861705,-66.426563,-10.209825,-67.02459366666666,Rondonia Geoglyph 432m - Bela Vista Geoglyph 420m - Bella Flor Geoglifo 380 x 340m n-s ratio @ belav = 1.0 : 0.599969 (-2.5m) n-s ratio @ ronge = 1.0 : 0.400031 (+2.5m)
ronge-macht-nocp,40.05469583,-82.4442625,5.676303943333333,-73.80518916666666,Rondonia Geoglyph 432m - Machupicchu Torreon - Newark Octagon e-w ratio @ macht = 1.0: 0.618028 (-7m) e-w ratio @ nocp = 1.0 : 0.618036 (+4m) e-w ratio @ ronge = 1.0 : 2.618050 (-4m) phi ratio  1.0 : 0.618034 = 1.618034 : 1.0 Web Archive
ronge-nocp-nccm,-9.861705,-66.426563,23.411339536666663,-77.10057146333334,"Rondonia Geoglyph 432m - Newark Octagon - Eagle Mound n-s ratio @ nocp = 1.0 : 0.000274 (+0.2m) epoch hopewell od = 0.0027378 orbits per day n-s ratio @ nocp = 1.0 : 3652.0499 (+0.2m) epoch hopewell do = 365.2564674 days per orbit arcs ratio @ ronge = 1.0 : 1.000314 Observatory Circle - Rondonia Geoglyph 432m nocc-ronge n-s : e-w @ ronge = 1.0 : 3.141491 (+44m) Note:  Margin of error concerns are amplified with relatively proximate intra-site distances, even when the data is GPS derived. Machupicchu Archaeogeodesy For intra-site anaylsis, precise GPS or direct survey is necessary to attain reasonable confidence in the results. Comparing a monument at Machupicchu to the nearby Waynapicchu and Machupicchu peaks, given near precise  datums, the margin of error would be nearer five parts in two thousand, or one part in four hundred. The intra-site results in the KML file are in a separate folder due to the lessor geodetic scale and correlated lower confidence in results.  Given the correlation between larger scale and much greater confidence in the results, I prefer researching regional and global monument relationships and geodetic properties such as latitude. As previously discussed , I almost entirely eschew determinations on the scale of single monuments, such as alignments of megaliths in a stone circle or openings in earthworks.  Of course, global scale relationships and site latitudes provide context and possibly greater confidence in intra-site analyses."
ronge-rong30-rong23,-9.861705,-66.426563,-9.859173666666667,-66.451239,Rondonia Geoglyph 432m - Rondonia Geoglyph 324 x 308m - Rondonia Geoglyph 280m arcs ratio @ rong30 = 1.0 : 0.666928 (+6m)
ronge-tikrp-ncec,40.04103679,-82.43106901,15.799763263333332,-79.49493800333333,Rondonia Geoglyph 432m - Tikal Radial Pyramid - Great Circle arcs ratio @ tikrp = 1.0 : 0.666669 (+8m)
ronge-uinti-chhpc,-13.175667,-72.557333,-10.877042000000001,-72.05394866666667,Rondonia Geoglyph 432m - Urubamba Intihuatana GPS - Chavin Plaza Circular n-s ratio @ uinti = 1.0 : 0.925193 (-2m) epoch inca ml = 0.9251987 moons per lunar orbit n-s ratio @ chhpc = 1.0 : 0.074807 (+2m) epoch inca yl = 0.074804221 years per lunar orbit n-s ratio @ uinti = 1.0 : 0.080855 (+2m) epoch inca ym = 0.0808521 years per moon
ronge-zulem-nocp,-9.861705,-66.426563,10.130996943333333,-75.6481115,Rondonia Geoglyph 432m - Zuleta Mound - Newark Octagon e-w ratio @ nocp = 1.0 : 0.272870 (+5m) epoch hopewell rn = 27.2867236 rotations per lunar nodal period
ronz43-nocga-ailli,40.053222,-82.446715,3.802547833333333,-70.88105639666666,Rondonia Zanja 329 x 280m - Octagon Gateway - Apu Illimani GPS e-w ratio @ ailli = 1.0 : 0.366234 (-14m) epoch hopewell ry = 366.242358 rotations per year
ronza-carac-nosc,-12.163747,-64.432005,16.18934366666667,-78.48198966666666,Rondonia Zanja 472 x 427m - Caracol - Octagon Small Circle arcs ratio @ nosc = 1.0 : 0.366008 (-14m) epoch hopewell ld = 0.03660099 lunar orbits per day Web Archive
rparq-fenim-nocc,40.05207671,-82.44861007,16.023136570000002,-80.31035702333332,Rancho Parana Quadrangle 237 x 230m - Aguada Fenix Mound - Observatory Circle e-w ratio @ fenim = 1.0 : 0.365256 (-2m) epoch hopewell do = 365.2564674	days per orbit Photo credit: Dr. Robert S. Walker
rpars-fenim-noom,40.05113889,-82.45013889,16.022266963333333,-80.31229363,Rancho Parana Square 216m - Aguada Fenix Mound - Observatory Mound e-w ratio @ fenim = 1.0 : 0.365257 (+2m) epoch hopewell do = 365.2564674	days per orbit Photo credit: Dr. Robert S. Walker
rpars-fenix-ncec,40.04103679,-82.43106901,16.01878659666667,-80.30533633666666,Rancho Parana Square 216m - Aguada Fenix - Great Circle e-w ratio @ fenix = 1.0 : 0.366011 (+2m) epoch hopewell ld = 0.0366010 lunar orbits per day Photo credit: Dr. Robert S. Walker
sgaen-huamo-nccm,-10.265453,-67.06337,6.7545615933333325,-75.90880963000001,San Gabriel Enclosure 240m - Huaca Moxeke - Eagle Mound e-w ratio @ nccm = 1.0 : 0.273220 (+6m) epoch hopewell dl = 27.321666 days per lunar orbit
sgaen-huamo-nocga,-10.265453,-67.06337,6.758626333333332,-75.914085,San Gabriel Enclosure 240m - Huaca Moxeke - Newark Octagon Gateway e-w ratio @ nocga = 1.0 : 0.273968 (+6m) epoch hopewell rl = 27.396467 rotations per lunar orbit
sgaen-seccp-octag,-10.265453,-67.06337,6.775508851666667,-75.91471922166667,San Gabriel Enclosure 240m - Sechin Circular Plaza - Octagon Earthwork e-w ratio @ octag = 1.0 : 0.273783 (+4m) epoch hopewell od = 0.0027378 orbits per day
sgaen-taukh-nocc,-10.265453,-67.06337,6.778602236666667,-75.91902902333334,San Gabriel Enclosure 240m - Taukachi Huaca - Observatory Circle e-w ratio @ nocc = 1.0 : 0.273217 (-0.1m) epoch hopewell dl = 27.321666 days per lunar orbit
sjudc-hdsol-ncec,40.04103679,-82.43106901,7.107030596666667,-76.46506400333334,Sao Judas Circle 320m - Huaca del Sol - Great Circle n-s ratio @ hdsol = 1.0 : 19.597977 (+9m) epoch hopewell et = 19.598656 eclipse nodal intervals per lunar orbit turn Web Archive
sjudc-nocc,40.05207671,-82.44861007,14.731549855,-75.208867535,Sao Judas Circle 320m - Observatory Circle arc 52.390424° = 1.800011 s29 (+36m) Sao Judas Circle 320m - Observatory Mound noom-sjudc arc 48.004737° = 1.799993 s29 (-23m) Sao Judas Circle 320m - Huaca Huallamarca - Observatory Mound sjudc-hhual-noom arcs ratio @ noom = 1.0 : 0.999996 (-24m) Sao Judas Circle 320m - Tumi Chucua Zanja - Newark Octagon sjudc-tuchz-nocp e-w ratio @ sjudc = 1.0 : 0.124986 (-23m) Observatory Circle = 321 meters Sao Judas Circle = 320 meters
sjudc-nocga,40.053222,-82.446715,14.7321225,-75.20792,Sao Judas Circle 320m - Newark Octagon Gateway e-w 14.477590° sine = 0.250001 (+9m) Sao Judas Circle 320m - Tumi Chucua Zanja - Newark Octagon nocp-tuchz-sjudc e-w ratio @ sjudc = 1.0 : 0.124986 (-23m) Newark Octagon Work Photo Gallery
sjudc-parp3-nesqc,40.04678331,-82.423833,5.734194770000001,-75.765147,Sao Judas Circle 320m - Pachacamac III - Newark Square e-w ratio @ sjudc = 1.0 : 0.618024 (-16m) e-w ratio @ parp3 = 1.0 : 0.618060 (+26m) e-w ratio @ nesqc = 1.0 : 2.617966 (+16m) phi ratio 1.0 : 0.618034... = 1.618034... : 1.0 Sao Judas Circle 320m - Pachacamac Monjas - Great Circle Gateway sjudc-pachm-ncgc e-w ratio @ pachm = 1.0 : 0.618031 (-2.5m)
sjue1-chhla-nccm,-10.614976,-68.041123,6.610786926666667,-75.88344863,Sao Judas Enclosure 258 x 242m - Chavin Lanzon - Eagle Mound e-w ratio @ nccm = 1.0 : 0.365020 (+15m) epoch hopewell lr = 0.0365011 lunar orbits per rotation
sjuen-hdsol-nocp,40.05469583,-82.4442625,7.07364661,-76.53252216666665,Sao Judas Enclosure 305 x 260m - Huaca del Sol -  Newark Octagon e-w ratio @ hdsol = 1.0 : 0.318295 (-18m) e-w ratio @ hdsol = 1.0 : 3.141740 (-18m)
slorz-chhla-nocp,-15.514862,-65.682168,4.9820476099999995,-75.10158816666667,San Lorenzo Zanja 1015 x 660m - Chavin de Huantar Lanzon - Newark Octagon e-w ratio @ nocp = 1.0 : 0.314157 (-4m) pi = 3.14159265… : 1.0 : 0.3183099…
slorz-pmoon-noom,-15.514862,-65.682168,14.745326296666667,-82.32539263,San Lorenzo Zanja 1015 x 660m - Pyramid of the Moon - Observatory Mound n-s ratio @ nocc = 1.0 : 0.366257 (+3m) epoch hopewell ro = 366.256467	rotations per orbit SW Mojos Platform - Pyramid of the Sun - Observatory Circle swmop-pdsol-nocc n-s ratio @ nocc = 1.0 : 0.366242 (-1m) epoch hopewell ry = 366.242358 rotations per year 1846 × 1186 pixels
smadg-ailli-huasc,-9.099323,-68.71307,-11.625166833333333,-71.36692339666666,Sena Madureira Geoglyph 364m - Apu Illimani GPS - Huascarán GPS arcs ratio @ ailli = 1.0 : 0.625015 (+20m)
smadg-iaman-mapic,-13.163568,-72.545397,-11.395180000000002,-64.93725533333334,Sena Madureira Geoglyph 364m - Iamacu North - Machupicchu Courtyard arcs ratio @ smadg = 1.0 : 0.365014 (+6m) epoch hopewell lr = 0.0365011 lunar orbits per rotation Sena Madureira Geoglyph 364m - Iamacu Circle 168m - Machupicchu Courtyard arcs ratio @ smadg = 1.0 : 0.365003 (-12m) Web Archive
smadg-mpsar-ailli,-16.6550445,-67.78363119,-12.972014833333333,-69.68082606333333,Sena Madureira Geoglyph 364m - Sacred Rock - Apu Illimani GPS n-s ratio @ smadg = 1.0 : 1.859937 (+0.1m) epoch hopewell yt = 18.5993727 years per lunar orbit turn Web Archive
smadg-noom-grcrm,39.91686111,-80.74472222,23.62289233333333,-77.30264370333333,Sena Madureira Geoglyph 364m - Observatory Mound - Grave Creek Mound GPS n-s ratio @ noom = 1.0 : 0.002732 (-1m) epoch hopewell dl = 27.321666 days per lunar orbit n-s ratio @ grcrm = 1.0 : 0.002739 (-1m) epoch hopewell rl = 27.3964674 rotations per lunar orbit n-s ratio @ lacoe = 1.0 : 0.997268 (+10m) epoch hopewell dr = 0.99726967 days per rotation n-s ratio @ noom = 1.0 : 0.002732 (+9m) epoch hopewell or = 0.00273033 orbits per rotation n-s ratio @ noom = 1.0 : 0.002739 (+9m) epoch hopewell od = 0.00273780 orbits per day noom-grcrm arc 1.313591° = cir / 274.0578499
triuq-fenim-nocga,40.053222,-82.446715,15.832405333333332,-80.30798366666666,Triunfo Quadrangle 196 x 185m - Aguada Fenix Mound - Newark Octagon Gateway e-w ratio @ 1.0 : 0.366255 (-3m) epoch hopewell do = 365.2564674 days per orbit Rancho Parana Quadrangle 237 x 230m - Aguada Fenix Mound - Observatory Circle nocc-fenim-rparq e-w ratio @ fenim = 1.0 : 0.365256 (-2m) epoch hopewell do = 365.2564674 days per orbit Acre Triple Square 230m - Newark Octagon Gateway acrts-nocga arc 51.853756° tan = 1.273230 (-24m) 4 / pi tan = 1.273240 (-24m)
triuq-pachs-nccm,-10.360685,-67.334271,5.80585126,-75.55566062999999,Triunfo Quadrangle 196 x 185m - Pachacamac - Eagle Mound e-w ratio @ nccm = 1.0 : 0.366245 (+5m) epoch hopewell ry = 366.242358	rotations per year Triunfo Quadrangle 196 x 185m - Pachacamac - Great Circle triuq-pachs-ncec e-w ratio @ ncec = 1.0 : 0.366253 (-6m) epoch hopewell ro = 366.256467 rotations per orbit
ronza-popoe-nccm,40.04102778,-82.43088889,20.171235593333332,-79.42205696333333,Rondonia Zanja 472 x 427m - Poverty Point Earthworks - Eagle Mound arcs ratio @ popoe = 1.0 : 0.199998 (-14m)
tuchm-nocc,-11.147689,-66.160197,14.452193855,-74.304403535,"Tumi Chucua Mound - Observatory Circle n-s : e-w ratio @ tuchm = 10.0 : 3.14157 (-14m) Tumi Chucua Mound - Observatory Mound tuchm-noom n-s : e-w ratio @ tuchm = 10.0 : 3.14192 (+19m) tuchm-noom n-s : e-w° = 1.0 : 3.14297 (-791m) given 22 / 7 = 3.142857 (+66m) Download the KML file - Tumichucua, Newark, and Pi ArchaeoBlog"
tuchz-abuno-mmapi,-11.145879,-66.159941,-11.433334533333332,-68.4789315,Tumi Chucua Zanja - Abuna Oval 342 x 315m - Montaña Machupicchu n-s ratio @ abuno = 1.0 : 0.365059 (+17m) epoch hopewell lr = 0.0365011 lunar orbits per rotation Web Archive
tuchz-abuno-nocp,40.05469583,-82.4442625,6.309809943333334,-71.77971649999999,Tumi Chucua Zanja - Abuna Oval 342 x 315m - Newark Octagon e-w ratio @ abuno = 1.0 : 0.366003 (+3m) epoch hopewell ld = 0.0366010 lunar orbits per day ArchaeoBlog
tuchz-abuno-veros,-11.145879,-66.159941,-11.432853333333334,-68.43182566666667,Tumi Chucua Zanja - Abuna Oval 342 x 315m - Veronica Summit n-s ratio @ abuno = 1.0 : 0.365224 (-6m) epoch hopewell dy = 365.2423969 days per year Web Archive
tuchz-acrtq,-9.885919,-66.958291,-10.515899000000001,-66.559116,Tumi Chucua Zanja - Acre Triple Quadrangle 320 x 230m n-s : e-w ratio @ acrtq = 1.0 : 0.628306 (-2m) pi / 5.0 = 0.628318
tuchz-acrtq-ailli,-16.6550445,-67.78363119,-12.562280833333332,-66.96728773,Tumi Chucua Zanja - Acre Triple Quadrangle 320 x 230m - Apu Illimani GPS n-s ratio @ acrtq = 1.0 : 0.186133 (+5m) epoch hopewell ys = 18.6127085 years per lunar standstill period Tumi Chucua Zanja - Apu Illimani GPS tuchz-ailli arc 5.729995° = 0.100007 r (+46m)
tuchz-amaov-ronza,-12.163747,-64.432005,-10.956494000000001,-65.920554,Tumi Chucua Zanja - Amazonas Oval 480 x 440m - Rondonia Zanja 472 x 427m arcs ratio @ amaov = 1.0 : 0.500013 (+5m)
tuchz-amazo-ailli,-16.6550445,-67.78363119,-12.393462833333333,-66.85415506333334,Tumi Chucua Zanja - Amazonas Oval 340 x 320m - Apu Illimani GPS arcs ratio @ tuchz = 1.0 : 0.318190 (+5m) arcs ratio @ tuchz = 3.142779 : 1.0 (+5m) 22 / 7 = 3.142857
tuchz-amazo,-11.145879,-66.159941,-10.262672,-66.38941700000001,Tumi Chucua Zanja - Amazonas Oval 340 x 320m arc : e-w @ amazo = 1.0 : 0.249989 (-2m)
tuchz-aripz-tapaz,-11.145879,-66.159941,-10.119654333333335,-61.05235066666666,Tumi Chucua Zanja - Aripuana Zanja 403 x 338m - Tapajos Zanja 380 x 373m n-s ratio @ tapaz = 1.0 : 0.399972 (-4m)
tuchz-carac-nccm,40.04102778,-82.43088889,16.524808926666665,-79.05384796333334,Tumi Chucua Zanja - Caracol - Eagle Mound e-w ratio @ carac = 1.0 : 0.273968 (+7m) epoch hopewell rl = 27.396467 rotations per lunar orbit Web Archive
tuchz-casti-noom,40.05113889,-82.45013889,16.52940496333333,-79.05957529666667,Tumi Chucua Zanja - Castillo - Observatory Mound e-w ratio @ casti = 1.0 : 0.273042 (-4m) epoch hopewell yr = 0.00273043 years per rotation Web Archive
tuchz-ldant-nocp,-11.145879,-66.159941,15.553464943333333,-79.50233183333334,Tumi Chucua Zanja - La Danta GPS - Newark Octagon e-w ratio @ ldant = 1.0 : 0.314138 (-56m) pi = 3.14159265… : 1.0 : 0.3183099… Newark Octagon F - La Danta GPS - Tumi Chucua Zanja ldant-nof-tuchz e-w ratio @ ldant = 1.0 : 0.314151 (-21m) ArchaeoBlog
tuchz-libci-ncec,-11.145879,-66.159941,22.71647830666667,-77.15587081666666,Tumi Chucua Zanja - Liberty Circle - Great Circle e-w ratio @ ncec = 1.0 : 0.027382 (+5m) epoch hopewell yd = 0.0027379 years per day Tumi Chucua Zanja - Liberty Circle - Eagle Mound tuchz-libci-nccm e-w ratio @ nccm = 1.0 : 0.027393 (-6m) epoch hopewell rl = 27.396467 rotations per lunar orbit
tuchz-lomxz-chhpc,-11.145879,-66.159941,-12.000888333333334,-69.231673,Tumi Chucua Zanja - Loma X Zanja - Chavin Plaza Circular n-s ratio @ chhpc = 1.0 : 0.273778 (-1m) epoch chavin od = 0.0027378 orbits per day
tuchz-mapic-ailli,-13.163568,-72.545397,-13.654830500000001,-68.82965639666666,Tumi Chucua Zanja - Machupicchu Courtyard - Apu Illimani GPS n-s ratio @ tuchz = 1.0 : 0.366242 (precise) epoch inca ry = 366.2422185 rotations per year Web Archive
tuchz-monja-nocp,40.05469583,-82.4442625,7.044706276666666,-75.56394949999999,Tumi Chucua Zanja - Wamachuco Monjas - Newark Octagon e-w ratio @ monja = 1.0 : 0.365252 (-6m) epoch hopewell do = 365.2564674 days per orbit Tumi Chucua Mound - Wamachuko Castillo - Great Circle tuchm-wamac-ncec e-w ratio @ wamac = 1.0 : 0.365006 (-6m) epoch hopewell lr = 0.036501057 lunar orbits per rotation Web Archive
tuchz-mwayn-ancog,-15.854253,-68.541413,-13.385575699999999,-69.0824084,Tumi Chucua Zanja - Waynapicchu - Ancohuma GPS arcs ratio @ tuchz = 1.0 : 0.800018 (+13m) mpqsr-tuchz-ancog n-s ratio @ mpqsr = 1.0 : 0.750034 (+10m) Web Archive
tuchz-sebaj-popoe,-11.145879,-66.159941,4.008662666666667,-78.60930466666667,Tumi Chucua Zanja - Sechin Bajo - Poverty Point Earthworks arcs ratio @ sebaj = 1.0 : 0.273780 (-1m) epoch chavin od = 0.0027378 orbits per day Tumi Chucua Zanja - Sechin Bajo Primer Edificio - Poverty Point A sebpe-povpa-tuchz arcs ratio @ sebpe = 1.0 : 0.273788 (-14m) epoch chavin yd = 0.0027379 years per day Aripuana Zanja 403 x 338m - Sechin Bajo - Poverty Point Earthworks aripz-secba-popoe n-s ratio @ aripz = 1.0 : 0.002730 (-1m) epoch chavin or = 0.0027303 orbits per rotation Sechin Circular Plaza - Poverty Point A seccp-popma e-w 13.176554° = 1.000015 c27 (+22m) seccp-popma e-w 13.176554° = 0.03660154 cir (+22m) epoch chavin ld = 0.03660098 lunar orbits per day
tuchz-sjudc-nocp,40.05469583,-82.4442625,6.106613276666667,-72.1911095,Tumi Chucua Zanja - Sao Judas Circle 320m - Newark Octagon e-w ratio @ sjudc = 1.0 : 0.124986 (-23m) Sao Judas Circle 320m - Observatory Circle nocc-sjudc arc 52.390424° = 1.800011 s29 (+35m) Sao Judas Circle 320m - Newark Octagon - Qin Pyramid sjudc-nocp-qinsh arcs ratio @ nocp = 1.0 : 0.499994 (-73m) Web Archive
tuchz-smadg-nccm,40.04102778,-82.43088889,6.598608593333334,-72.43463329666668,Tumi Chucua Zanja - Sena Madureira Geoglyph 364m - Eagle Mound e-w ratio @ smadg = 1.0 : 0.186118 (-3m) epoch hopewell os = 18.6119915 orbits per lunar standstill period
tuchz-uteci-nccm,37.123937,-108.333548,22.006361926666667,-85.64145929666667,"Tumi Chucua Zanja - Ute Circle - Eagle Mound arcs ratio @ nccm = 1.0 : 2.618053 (-16m) phi ratio 0.618034... : 1.0 = 1.0 : 1.618034... Phi squared = 2.618034... Ute Circle - La Plata Circle uteci-lplac n-s : e-w ratio @ uteci = 1.0 : 0.628418 (+2m) pi * 2.0 = 6.2831853... : 1.0 : 0.159154943... Holmes Group article with lidar image of La Plata Circle. Ute Circle, one of several Southwest great circles, is smaller than Tumi Chucua and larger than the Great Circle.  The two circles in my graphic illustrating their relative sizes are based on mean radii.  The sixteen meter circle in the center is the margin of error for the center-on-center arc distances ratio from Eagle Mound at the center of Newark's Great Circle. The relationship of Newark's Observatory Circle and Tumi Chucua Zanja expresses pi redundantly. Download the KML file - Tumichucua, Newark, and Pi - tumichucua.kml"
tuchm-wamac-ncec,40.04103679,-82.43106901,7.036651596666666,-75.55715400333334,Tumi Chucua Mound - Wamachuko Castillo - Great Circle e-w ratio @ wamac = 1.0 : 0.365006 (-6m) epoch hopewell lr = 0.036501057 lunar orbits per rotation Newark Ellipse Work - Wamachuko Castillo - Aconcagua GPS neew-wamac-acong e-w ratio @ wamac = 1.0 : 1.859977 (-10m) epoch hopewell yt = 18.599373 years per lunar orbit turn Web Archive
tuchz-xapen-sjudc,-11.145879,-66.159941,-10.839473666666668,-67.500026,Tumi Chucua Zanja - Xapuri Enclosure 340m - Sao Judas Circle 320m arcs ratio @ xapen = 1.0 : 0.200049 (+12m) Xapuri Enclosure is a 340m roughly circular earthwork with several irradiating linear earthworks.
xapen-chhpq-nocp,40.05469583,-82.4442625,6.558866943333332,-75.99742583333334,Xapuri Enclosure 340m - Chavin Plaza - Newark Octagon arcs ratio @ xapen = 1.0 : 0.166668 (+6m) Xapuri Enclosure 340m - Chavin Plaza Circular - Intiwatana UTM xapen-chhpc-intih n-s ratio @ chhpc = 1.0 : 0.333335 (+1m)
xapen-intih-chhpc,-9.593754,-77.17795,-11.180140666666667,-72.698209,Xapuri Enclosure 340m - Intiwatana UTM - Chavin Plaza Circular n-s ratio @ intih = 1.0 : 0.6666598 (-3m) n-s ratio @ chhpc = 1.0 : 0.333341 (+3m)
xapen-jasio-amao10,-13.7214,-63.741007,-11.389563666666666,-66.41415833333333,Xapuri Enclosure 340m - Jasiaquiri Oval 360 x 320m - Amazonas Oval 366 x 316m e-w ratio @ amao10 = 1.0 : 0.366005 (-2m) epoch hopewell ld = 0.03660099 lunar orbits per day
xapen-jasio-amats,-13.7214,-63.741007,-11.211030666666666,-66.44178866666667,Xapuri Enclosure 340m - Jasiaquiri Oval 360 x 320m - Amazonas Triple Square 260m e-w ratio @ xapen = 1.0 : 0.250035 (+18m) Photo credit: Dr. Robert S. Walker
xapen-jasio-lvice,-10.783565,-68.371012,-12.322452333333333,-67.09215066666667,Xapuri Enclosure 340m - Jasiaquiri Oval 360 x 320m - La Victoria Enclosure 390 x 260m n-s ratio @ lvice = 1.0 : 0.749933 (-12m)
xapen-machk-thorc,-13.162485,-72.544829,10.088019496666668,-47.49331092,Xapuri Enclosure 340m - Machupicchu Kallanka - Thornborough Centre n-s ratio @ xapen = 1.0 : 0.036602 (+10m) epoch hopewell ld = 0.0366010 lunar orbits per day Machupicchu Carved Rock - Xapuri Enclosure 340m - Thornborough North maccr-xapen-thonc n-s ratio @ maccr = 1.0 : 0.036602 (+8m)
xapen-placc-bacsq,-10.218232,-67.158253,-9.907238333333334,-67.568378,Xapuri Enclosure 340m - Placido de Castro Circle 171m - Boca do Acre Square 175m n-s ratio @ xapen = 1.0 : 0.273948 (-4m) epoch hopewell rl = 27.396467 rotations per lunar orbit
xapen-plcdq-nocc,40.05207671,-82.44861007,6.3549202366666675,-72.66378669,Xapuri Enclosure 340m - Plácido de Castro Double Quadrangle 130 x 124m - Observatory Circle e-w ratio @ xapen = 1.0 : 0.085190 (-9m) epoch hopewell em = 0.0851960 eclipse nodal intervals per moon e-w ratio @ plcdq = 1.0 : 0.078503 (-8m) epoch hopewell en = 0.0785074 eclipse nodal intervals per nodal period e-w ratio @ nocc = 1.0 : 0.921497 (+8m) epoch hopewell mn = 0.9214926 moons per lunar nodal period
xapen-plcdq,-10.203751,-67.171738,-10.493658,-67.771375,Xapuri Enclosure 340m - Placido de Castro Double Quadrangle 130 x 124m arc 1.314047° = 0.100001 r27 (+1m)
